NORAD_CAT_ID,OBJECT_NAME,OBJECT_TYPE,EPOCH,MEAN_MOTION,ECCENTRICITY,INCLINATION,RA_OF_ASC_NODE,ARG_OF_PERICENTER,MEAN_ANOMALY,BSTAR,MEAN_MOTION_DOT,MEAN_MOTION_DDOT,TLE_LINE0,TLE_LINE1,TLE_LINE2,SEMIMAJOR_AXIS,PERIOD,APOGEE,PERIGEE,DECAYED
49143.0,STARLINK-3109,PAYLOAD,2023-04-05 09:09:41,14.98329186,0.0002887,69.9998,90.5661,268.3302,91.7526,4.4285e-05,4.35e-06,0.0,0 STARLINK-3109,1 49143U 21082P   23095.38173484  .00000435  00000-0  44285-4 0  9990,2 49143  69.9998  90.5661 0002887 268.3302  91.7526 14.98329186 87410,6950.195,96.107,574.067,570.054,0.0
49143.0,STARLINK-3109,PAYLOAD,2023-04-05 17:10:22,14.9833159,0.000294,69.9997,89.7243,271.9456,88.1366,2.3559e-05,1.88e-06,0.0,0 STARLINK-3109,1 49143U 21082P   23095.71553373  .00000188  00000-0  23559-4 0  9992,2 49143  69.9997  89.7243 0002940 271.9456  88.1366 14.98331590 87464,6950.188,96.107,574.096,570.01,0.0
49143.0,STARLINK-3109,PAYLOAD,2023-04-06 09:11:46,14.98282055,0.0002972,70.0014,88.0436,261.394,98.6882,-0.00048451,-5.862e-05,0.0,0 STARLINK-3109,1 49143U 21082P   23096.38317345 -.00005862  00000-0 -48451-3 0  9996,2 49143  70.0014  88.0436 0002972 261.3940  98.6882 14.98282055 86446,6950.341,96.11,574.272,570.141,0.0
49143.0,STARLINK-3109,PAYLOAD,2023-04-06 17:12:22,14.98330972,0.0002747,70.0006,87.199,266.7445,93.34,4.342e-05,4.25e-06,0.0,0 STARLINK-3109,1 49143U 21082P   23096.71693280  .00000425  00000-0  43420-4 0  9998,2 49143  70.0006  87.1990 0002747 266.7445  93.3400 14.98330972 86496,6950.19,96.107,573.964,570.146,0.0
49143.0,STARLINK-3109,PAYLOAD,2023-04-07 09:13:43,14.98328378,0.0002661,70.0011,85.5188,256.9448,103.1414,5.5406e-05,5.68e-06,0.0,0 STARLINK-3109,1 49143U 21082P   23097.38453330  .00000568  00000-0  55406-4 0  9997,2 49143  70.0011  85.5188 0002661 256.9448 103.1414 14.98328378 87710,6950.198,96.107,573.912,570.213,0.0
49143.0,STARLINK-3109,PAYLOAD,2023-04-08 06:03:28,14.98333396,0.0002814,70.0019,83.3318,256.9845,103.1,2.7677e-05,2.37e-06,0.0,0 STARLINK-3109,1 49143U 21082P   23098.25240968  .00000237  00000-0  27677-4 0  9997,2 49143  70.0019  83.3318 0002814 256.9845 103.1000 14.98333396 86727,6950.182,96.107,574.003,570.092,0.0
49143.0,STARLINK-3109,PAYLOAD,2023-04-08 09:15:44,14.98333236,0.0002876,70.0013,82.9942,260.2648,99.8187,-3.8592e-05,-5.53e-06,0.0,0 STARLINK-3109,1 49143U 21082P   23098.38593087 -.00000553  00000-0 -38592-4 0  9995,2 49143  70.0013  82.9942 0002876 260.2648  99.8187 14.98333236 87862,6950.183,96.107,574.047,570.049,0.0
49143.0,STARLINK-3109,PAYLOAD,2023-04-09 09:17:45,14.98331053,0.0002883,70.0002,80.4666,266.9414,93.1415,1.8435e-05,1.27e-06,0.0,0 STARLINK-3109,1 49143U 21082P   23099.38732989  .00000127  00000-0  18435-4 0  9991,2 49143  70.0002  80.4666 0002883 266.9414  93.1415 14.98331053 86896,6950.19,96.107,574.058,570.051,0.0
49143.0,STARLINK-3109,PAYLOAD,2023-04-09 15:42:17,14.98331108,0.0002875,70.0004,79.7933,267.376,92.707,1.4212e-05,7.7e-07,0.0,0 STARLINK-3109,1 49143U 21082P   23099.65436980  .00000077  00000-0  14212-4 0  9996,2 49143  70.0004  79.7933 0002875 267.3760  92.7070 14.98331108 88059,6950.189,96.107,574.053,570.056,0.0
49143.0,STARLINK-3109,PAYLOAD,2023-04-10 09:19:45,14.98334306,0.0002868,70.0004,77.9417,267.616,92.467,5.6485e-05,5.81e-06,0.0,0 STARLINK-3109,1 49143U 21082P   23100.38872609  .00000581  00000-0  56485-4 0  9999,2 49143  70.0004  77.9417 0002868 267.6160  92.4670 14.98334306 87049,6950.18,96.107,574.038,570.051,0.0
49143.0,STARLINK-3109,PAYLOAD,2023-04-10 15:44:18,14.98328947,0.0002838,70.0006,77.2681,269.2736,90.8098,1.9832e-05,1.44e-06,0.0,0 STARLINK-3109,1 49143U 21082P   23100.65577026  .00000144  00000-0  19832-4 0  9994,2 49143  70.0006  77.2681 0002838 269.2736  90.8098 14.98328947 88200,6950.196,96.107,574.034,570.089,0.0
49143.0,STARLINK-3109,PAYLOAD,2023-04-11 07:45:39,14.98329636,0.0002906,70.0005,75.585,268.3154,91.7672,3.5075e-05,3.26e-06,0.0,0 STARLINK-3109,1 49143U 21082P   23101.32336937  .00000326  00000-0  35075-4 0  9992,2 49143  70.0005  75.5850 0002906 268.3154  91.7672 14.98329636 88303,6950.194,96.107,574.079,570.039,0.0
49143.0,STARLINK-3109,PAYLOAD,2023-04-12 07:47:40,14.98329613,0.0002902,70.0008,73.0607,269.0793,91.0033,-1.0803e-05,-2.22e-06,0.0,0 STARLINK-3109,1 49143U 21082P   23102.32477117 -.00000222  00000-0 -10803-4 0  9998,2 49143  70.0008  73.0607 0002902 269.0793  91.0033 14.98329613 87333,6950.194,96.107,574.076,570.042,0.0
49143.0,STARLINK-3109,PAYLOAD,2023-04-13 07:49:40,14.983357,0.0002994,70.0007,70.535,269.4675,90.6141,8.6857e-05,9.44e-06,0.0,0 STARLINK-3109,1 49143U 21082P   23103.32616450  .00000944  00000-0  86857-4 0  9995,2 49143  70.0007  70.5350 0002994 269.4675  90.6141 14.98335700 88603,6950.175,96.107,574.121,569.959,0.0
49143.0,STARLINK-3109,PAYLOAD,2023-04-14 07:51:41,14.98332464,0.0002885,70.0011,68.0102,270.1531,89.9298,8.6464e-05,9.39e-06,0.0,0 STARLINK-3109,1 49143U 21082P   23104.32756694  .00000939  00000-0  86464-4 0  9999,2 49143  70.0011  68.0102 0002885 270.1531  89.9298 14.98332464 87634,6950.185,96.107,574.055,570.045,0.0
49143.0,STARLINK-3109,PAYLOAD,2023-04-15 06:17:34,14.98332864,0.0002508,70.0021,65.6561,262.3687,97.7187,1.6656e-05,1.06e-06,0.0,0 STARLINK-3109,1 49143U 21082P   23105.26220851  .00000106  00000-0  16656-4 0  9996,2 49143  70.0021  65.6561 0002508 262.3687  97.7187 14.98332864 88891,6950.184,96.107,573.792,570.306,0.0
49143.0,STARLINK-3109,PAYLOAD,2023-04-15 20:42:47,14.98332048,0.000248,70.0022,64.1412,262.8867,97.201,4.9138e-05,4.93e-06,0.0,0 STARLINK-3109,1 49143U 21082P   23105.86304756  .00000493  00000-0  49138-4 0  9999,2 49143  70.0022  64.1412 0002480 262.8867  97.2010 14.98332048 88989,6950.187,96.107,573.775,570.328,0.0
49143.0,STARLINK-3109,PAYLOAD,2023-04-15 22:18:55,14.9833113,0.0002516,70.0021,63.9724,265.8252,94.262,3.5482e-05,3.3e-06,0.0,0 STARLINK-3109,1 49143U 21082P   23105.92980861  .00000330  00000-0  35482-4 0  9990,2 49143  70.0021  63.9724 0002516 265.8252  94.2620 14.98331130 87874,6950.189,96.107,573.803,570.306,0.0
49143.0,STARLINK-3109,PAYLOAD,2023-04-16 06:19:35,14.98333869,0.0002606,70.0019,63.1298,273.1031,86.9829,5.9878e-05,6.22e-06,0.0,0 STARLINK-3109,1 49143U 21082P   23106.26360649  .00000622  00000-0  59878-4 0  9993,2 49143  70.0019  63.1298 0002606 273.1031  86.9829 14.98333869 89047,6950.181,96.107,573.857,570.235,0.0
49143.0,STARLINK-3109,PAYLOAD,2023-04-16 20:44:48,14.98280678,0.0002226,70.002,61.6131,259.7394,100.3514,0.00079491,9.392e-05,0.0,0 STARLINK-3109,1 49143U 21082P   23106.86445413  .00009392  00000-0  79491-3 0  9997,2 49143  70.0020  61.6131 0002226 259.7394 100.3514 14.98280678 88015,6950.345,96.11,573.758,570.663,0.0
49143.0,STARLINK-3109,PAYLOAD,2023-04-17 04:45:28,14.98329532,0.0002704,70.0017,60.7723,267.8589,92.226,2.0327e-05,1.5e-06,0.0,0 STARLINK-3109,1 49143U 21082P   23107.19825021  .00000150  00000-0  20327-4 0  9999,2 49143  70.0017  60.7723 0002704 267.8589  92.2260 14.98329532 88060,6950.194,96.107,573.939,570.18,0.0
49143.0,STARLINK-3109,PAYLOAD,2023-04-17 06:21:37,14.98313812,0.000267,70.0022,60.6027,265.5261,94.5593,0.00027038,3.133e-05,0.0,0 STARLINK-3109,1 49143U 21082P   23107.26501475  .00003133  00000-0  27038-3 0  9990,2 49143  70.0022  60.6027 0002670 265.5261  94.5593 14.98313812 89199,6950.243,96.108,573.964,570.252,0.0
49143.0,STARLINK-3109,PAYLOAD,2023-04-17 20:46:49,14.98330388,0.0002683,70.002,59.0891,266.9724,93.1128,1.6655e-05,1.06e-06,0.0,0 STARLINK-3109,1 49143U 21082P   23107.86584983  .00000106  00000-0  16655-4 0  9992,2 49143  70.0020  59.0891 0002683 266.9724  93.1128 14.98330388 88163,6950.192,96.107,573.921,570.192,0.0
49143.0,STARLINK-3109,PAYLOAD,2023-04-18 06:23:37,14.9833394,0.0002644,70.0023,58.0794,265.9389,94.1468,7.7864e-05,8.36e-06,0.0,0 STARLINK-3109,1 49143U 21082P   23108.26640576  .00000836  00000-0  77864-4 0  9997,2 49143  70.0023  58.0794 0002644 265.9389  94.1468 14.98333940 89346,6950.181,96.107,573.883,570.208,0.0
49143.0,STARLINK-3109,PAYLOAD,2023-04-19 06:25:38,14.98327799,0.0002779,70.0029,55.5573,267.2244,92.8597,3.6288e-05,3.4e-06,0.0,0 STARLINK-3109,1 49143U 21082P   23109.26781119  .00000340  00000-0  36288-4 0  9992,2 49143  70.0029  55.5573 0002779 267.2244  92.8597 14.98327799 89492,6950.2,96.107,573.996,570.133,0.0
49143.0,STARLINK-3109,PAYLOAD,2023-04-20 06:27:39,14.98333924,0.0002659,70.0028,53.0322,265.2975,94.788,5.2658e-05,5.35e-06,0.0,0 STARLINK-3109,1 49143U 21082P   23110.26920693  .00000535  00000-0  52658-4 0  9991,2 49143  70.0028  53.0322 0002659 265.2975  94.7880 14.98333924 89642,6950.181,96.107,573.894,570.198,0.0
49143.0,STARLINK-3109,PAYLOAD,2023-04-20 22:29:00,14.98322553,0.0002587,70.0032,51.3509,264.1801,95.9063,2.7773e-05,2.38e-06,0.0,0 STARLINK-3109,1 49143U 21082P   23110.93681524  .00000238  00000-0  27773-4 0  9992,2 49143  70.0032  51.3509 0002587 264.1801  95.9063 14.98322553 88620,6950.216,96.107,573.879,570.283,0.0
49143.0,STARLINK-3109,PAYLOAD,2023-04-21 12:54:13,14.98327374,0.0002546,70.0029,49.8375,256.1434,103.9442,2.6348e-05,2.21e-06,0.0,0 STARLINK-3109,1 49143U 21082P   23111.53765425  .00000221  00000-0  26348-4 0  9991,2 49143  70.0029  49.8375 0002546 256.1434 103.9442 14.98327374 89838,6950.201,96.107,573.836,570.296,0.0
49143.0,STARLINK-3109,PAYLOAD,2023-04-21 19:18:44,14.98337052,0.000298,70.0012,49.1593,270.204,89.8777,5.0487e-05,5.1e-06,0.0,0 STARLINK-3109,1 49143U 21082P   23111.80468661  .00000510  00000-0  50487-4 0  9995,2 49143  70.0012  49.1593 0002980 270.2040  89.8777 14.98337052 88754,6950.171,96.107,574.107,569.965,0.0
49143.0,STARLINK-3109,PAYLOAD,2023-04-22 04:55:32,14.98346364,0.0002855,70.001,48.1493,272.0764,88.0068,0.00014939,1.691e-05,0.0,0 STARLINK-3109,1 49143U 21082P   23112.20523596  .00001691  00000-0  14939-3 0  9991,2 49143  70.0010  48.1493 0002855 272.0764  88.0068 14.98346364 88811,6950.142,96.106,573.992,570.023,0.0
